MEAN_MOTION;ECCENTRICITY;INCLINATION;RA_OF_ASC_NODE;ARG_OF_PERICENTER;MEAN_ANOMALY;BSTAR;MEAN_MOTION_DOT;MEAN_MOTION_DDOT;TYPE
11.55054863;0.0004009;51.9863;103.2669;256.9888;103.0481;0.00026899;-6.2E-7;0;Globalstar
11.55054896;0.0004007;51.9863;100.9099;259.0039;101.0327;0.0004265;-5.5E-7;0;Globalstar
11.55054917;0.0004009;51.9863;99.41;260.1481;99.8883;0.00045358;-5.4E-7;0;Globalstar
11.55054925;0.0004007;51.9863;98.553;260.8688;99.1676;0.00049801;-5.1E-7;0;Globalstar
11.55054965;0.0004006;51.9864;96.1961;262.8834;97.1527;0.00054503;-4.9E-7;0;Globalstar
11.5505499;0.0004001;51.9865;93.6249;265.0576;94.9784;0.00045153;-5.4E-7;0;Globalstar
11.55055;0.0003999;51.9866;91.2681;267.0888;92.9471;0.00029734;-6.1E-7;0;Globalstar
11.55055009;0.0003999;51.9867;89.554;268.5687;91.4672;0.00015186;-6.8E-7;0;Globalstar
11.55055015;0.0003998;51.9867;88.6969;269.3982;90.6377;0.00012982;-6.9E-7;0;Globalstar
11.55055;0.0004;51.9868;86.9828;270.8075;89.2284;-5.2318E-5;-7.7E-7;0;Globalstar
11.55055015;0.0004003;51.9868;85.2686;272.2509;87.7849;-8.0896E-5;-7.9E-7;0;Globalstar
11.55055008;0.0004002;51.9868;84.4116;272.886;87.1499;-0.00014937;-8.2E-7;0;Globalstar
11.5505502;0.0004002;51.9869;83.5546;273.5807;86.4552;-0.00016684;-8.3E-7;0;Globalstar
11.55055019;0.0004002;51.987;81.4119;275.3369;84.6991;-0.00017714;-8.3E-7;0;Globalstar
11.55055002;0.0004001;51.987;81.1976;275.6406;84.3955;-0.00022525;-8.6E-7;0;Globalstar
11.55055007;0.0004004;51.9871;78.8407;277.5508;82.4854;-0.00015954;-8.2E-7;0;Globalstar
11.55054994;0.0004005;51.9873;76.2695;279.6613;80.3752;-0.00012299;-8.1E-7;0;Globalstar
11.55054994;0.0004005;51.9873;76.2695;279.6613;80.3752;-0.00012299;-8.1E-7;0;Globalstar
11.55055008;0.0004003;51.9875;73.9127;281.7865;78.2503;4.5972E-5;-7.3E-7;0;Globalstar
11.55055025;0.0004006;51.9876;72.1986;283.1715;76.8654;0.00012945;-6.9E-7;0;Globalstar
11.5505504;0.0004004;51.9877;71.3416;283.9346;76.1025;0.00018058;-6.6E-7;0;Globalstar
11.55055088;0.0004009;51.9879;68.9848;285.8834;74.1541;0.0002958;-6.1E-7;0;Globalstar
11.55055118;0.0004015;51.9881;66.4138;287.8526;72.1853;0.00026189;-6.3E-7;0;Globalstar
11.55055173;0.000402;51.9884;64.0571;289.8406;70.1977;0.00025951;-6.3E-7;0;Globalstar
11.55055189;0.0004023;51.9886;62.1289;291.4521;68.5867;0.00019835;-6.6E-7;0;Globalstar
11.55055197;0.0004023;51.9886;61.9147;291.6156;68.4232;0.00019706;-6.6E-7;0;Globalstar
11.55055222;0.0004018;51.9888;59.3437;293.8687;66.1708;0.00010189;-7.0E-7;0;Globalstar
11.55055303;0.0004005;51.9889;56.7728;296.1608;63.8797;0.00012693;-6.9E-7;0;Globalstar
11.55055359;0.0004002;51.9891;54.4161;298.2364;61.8049;0.00012089;-6.9E-7;0;Globalstar
11.55055398;0.0003993;51.9892;52.4879;299.9919;60.0501;0.0001522;-6.8E-7;0;Globalstar
11.55055443;0.0003994;51.9893;51.8452;300.5749;59.4673;0.00020041;-6.5E-7;0;Globalstar
11.55055621;0.0003993;51.9896;47.9888;303.7074;56.3362;0.00038957;-5.7E-7;0;Globalstar
11.55055673;0.0003999;51.9897;47.5604;304.0465;55.9972;0.00049728;-5.1E-7;0;Globalstar
11.55055719;0.0003995;51.9897;46.9177;304.6587;55.3853;0.00057063;-4.8E-7;0;Globalstar
11.5505579;0.0003992;51.9898;44.9895;306.2689;53.7759;0.00061454;-4.6E-7;0;Globalstar
11.55055819;0.0003991;51.9899;44.7753;306.4931;53.5518;0.00065783;-4.4E-7;0;Globalstar
11.55055932;0.0003989;51.9901;42.4186;308.4756;51.5702;0.00067076;-4.3E-7;0;Globalstar
11.55056078;0.0003989;51.9903;40.4905;310.1398;49.9069;0.00072946;-4.1E-7;0;Globalstar
11.55056175;0.0003983;51.9903;39.8478;310.8684;49.1787;0.00090174;-3.2E-7;0;Globalstar
11.55056327;0.000398;51.9905;37.2771;313.1297;46.9187;0.0008373;-3.5E-7;0;Globalstar
11.55056437;0.000398;51.9906;35.5632;314.5059;45.5432;0.00074268;-4.0E-7;0;Globalstar
11.55056551;0.0003966;51.9906;34.7063;315.4406;44.6092;0.00085725;-3.5E-7;0;Globalstar
11.55056673;0.0003968;51.9907;33.2067;316.5931;43.4573;0.00083392;-3.6E-7;0;Globalstar
11.55056794;0.0003956;51.9907;32.1356;317.5202;42.5308;0.0009483;-3.0E-7;0;Globalstar
11.55056815;0.0003955;51.9908;30.636;318.7853;41.2665;0.00066054;-4.4E-7;0;Globalstar
11.5505698;0.0003952;51.9908;29.7791;319.5585;40.4938;0.0008919;-3.3E-7;0;Globalstar
11.55057222;0.0003942;51.9909;25.7087;323.0858;36.9687;0.00067439;-4.3E-7;0;Globalstar
11.55057498;0.0003936;51.9909;23.3522;325.1438;34.9121;0.00098386;-2.9E-7;0;Globalstar
11.55057612;0.0003926;51.991;22.4952;326.0272;34.0293;0.0010881;-2.4E-7;0;Globalstar
11.5505786;0.0003917;51.991;19.9244;328.2906;31.7674;0.0012872;-1.4E-7;0;Globalstar
11.55057985;0.0003916;51.991;18.2106;329.7606;30.2985;0.0012183;-1.8E-7;0;Globalstar
11.55058152;0.0003912;51.991;16.0682;331.6187;28.4416;0.0011765;-1.9E-7;0;Globalstar
11.55058178;0.0003911;51.9911;15.854;331.8061;28.2544;0.0012364;-1.7E-7;0;Globalstar
11.55058368;0.000391;51.991;13.4975;333.7343;26.3275;0.0011825;-1.9E-7;0;Globalstar
11.55058446;0.0003909;51.9911;13.2833;333.9253;26.1366;0.0013764;-1.0E-7;0;Globalstar
11.55058624;0.0003908;51.9911;10.9268;335.9365;24.1268;0.0012657;-1.5E-7;0;Globalstar
11.55058697;0.0003906;51.9911;10.2841;336.5518;23.512;0.0012751;-1.5E-7;0;Globalstar
11.55058827;0.0003897;51.991;8.356;338.1888;21.8763;0.0010929;-2.3E-7;0;Globalstar
11.55058977;0.0003902;51.991;7.7134;338.8031;21.2624;0.0013234;-1.3E-7;0;Globalstar
11.55059034;0.0003899;51.991;5.9995;340.1942;19.8723;0.0010142;-2.7E-7;0;Globalstar
11.55059223;0.0003893;51.991;5.3569;340.8832;19.1838;0.0013717;-1.0E-7;0;Globalstar
11.55059307;0.0003887;51.9909;3.643;342.3053;17.7628;0.0011051;-2.3E-7;0;Globalstar
11.55059543;0.0003888;51.9908;1.0723;344.4154;15.6542;0.0010533;-2.5E-7;0;Globalstar
11.5505978;0.0003881;51.9907;358.5015;346.5071;13.5641;0.0010815;-2.4E-7;0;Globalstar
11.5505983;0.0003879;51.9906;358.073;346.8989;13.1726;0.0011044;-2.3E-7;0;Globalstar
11.55060017;0.0003877;51.9905;356.1449;348.4258;11.6469;0.001248;-1.6E-7;0;Globalstar
11.55060081;0.0003874;51.9905;355.5022;348.9939;11.0792;0.0012439;-1.6E-7;0;Globalstar
11.55060247;0.0003871;51.9904;353.574;350.5007;9.5737;0.0012943;-1.4E-7;0;Globalstar
11.55060274;0.0003872;51.9903;352.9313;351.0257;9.049;0.0011874;-1.9E-7;0;Globalstar
11.55060446;0.0003867;51.9902;351.0031;352.5961;7.4798;0.0013168;-1.3E-7;0;Globalstar
11.55060544;0.000387;51.9901;349.5034;353.7465;6.3303;0.0012679;-1.5E-7;0;Globalstar
11.55060571;0.000386;51.9901;348.6464;354.4194;5.658;0.0011573;-2.0E-7;0;Globalstar
11.55060617;0.0003864;51.9901;348.4322;354.5691;5.5083;0.001202;-1.8E-7;0;Globalstar
11.55060793;0.0003858;51.99;346.5039;356.0622;4.0163;0.0012363;-1.7E-7;0;Globalstar
11.55060848;0.0003855;51.99;346.0754;356.4309;3.648;0.0012928;-1.4E-7;0;Globalstar
11.55060854;0.0003856;51.99;345.8612;356.606;3.4731;0.0012572;-1.6E-7;0;Globalstar
11.55061039;0.0003859;51.9899;343.7188;358.2454;1.8349;0.0012213;-1.7E-7;0;Globalstar
11.55061136;0.0003846;51.9898;343.076;358.8933;1.1875;0.0012383;-1.7E-7;0;Globalstar
11.55061277;0.0003849;51.9897;341.3621;0.1356;359.9461;0.0012112;-1.8E-7;0;Globalstar
11.55061327;0.0003848;51.9897;340.7194;0.6942;359.388;0.0011813;-1.9E-7;0;Globalstar
11.55061456;0.0003847;51.9896;338.7912;2.17;357.9132;0.0010788;-2.4E-7;0;Globalstar
11.55061655;0.0003842;51.9895;336.4345;3.9192;356.1654;0.0010375;-2.6E-7;0;Globalstar
11.55061853;0.0003826;51.9893;333.8635;5.9428;354.1433;0.000994;-2.8E-7;0;Globalstar
11.55062071;0.0003824;51.9891;330.8641;8.1941;351.8938;0.00098498;-2.9E-7;0;Globalstar
11.55062121;0.000382;51.989;329.3643;9.3086;350.7801;0.00086656;-3.4E-7;0;Globalstar
11.55062247;0.0003817;51.9889;327.436;10.7342;349.3556;0.00093103;-3.1E-7;0;Globalstar
11.55062338;0.0003811;51.9888;326.3647;11.5673;348.5231;0.0010009;-2.8E-7;0;Globalstar
11.55062352;0.0003811;51.9888;326.1504;11.736;348.3545;0.0010031;-2.8E-7;0;Globalstar
11.55062498;0.0003813;51.9887;324.0078;13.2627;346.8289;0.0010719;-2.4E-7;0;Globalstar
11.55062601;0.0003804;51.9887;322.2937;14.5663;345.5263;0.0010423;-2.6E-7;0;Globalstar
11.55062673;0.0003801;51.9886;321.4366;15.2173;344.8757;0.001135;-2.1E-7;0;Globalstar
11.5506269;0.0003801;51.9886;321.2224;15.3788;344.7144;0.0011423;-2.1E-7;0;Globalstar
11.55062818;0.0003804;51.9886;319.0798;16.8756;343.2187;0.001135;-2.1E-7;0;Globalstar
11.55062851;0.0003805;51.9886;318.6512;17.1951;342.8994;0.001128;-2.2E-7;0;Globalstar
11.55063002;0.0003798;51.9885;316.5086;18.745;341.3506;0.0011031;-2.3E-7;0;Globalstar
11.55063117;0.0003799;51.9885;314.1518;20.3819;339.7149;0.00095084;-3.0E-7;0;Globalstar
11.55063289;0.0003781;51.9884;311.5808;22.2328;337.8652;0.00085534;-3.5E-7;0;Globalstar
11.55063289;0.000378;51.9884;311.3665;22.3825;337.7156;0.00080714;-3.7E-7;0;Globalstar
11.55063409;0.0003774;51.9884;309.224;23.8971;336.2021;0.00068037;-4.3E-7;0;Globalstar
11.55063458;0.0003777;51.9884;308.7955;24.191;335.9083;0.00074959;-4.0E-7;0;Globalstar
11.55063543;0.0003769;51.9883;306.653;25.6583;334.4421;0.00059363;-4.7E-7;0;Globalstar
11.5506363;0.0003762;51.9883;305.1531;26.7008;333.4002;0.00060985;-4.6E-7;0;Globalstar
11.55063674;0.0003748;51.9882;304.0819;27.4475;332.6539;0.00053262;-5.0E-7;0;Globalstar
11.55063717;0.0003748;51.9882;302.5821;28.472;331.6301;0.00048384;-5.2E-7;0;Globalstar
11.550637;0.0003743;51.9882;302.3678;28.621;331.4811;0.00039784;-5.6E-7;0;Globalstar
11.55063813;0.0003746;51.9882;301.7251;29.0455;331.0569;0.00066669;-4.4E-7;0;Globalstar
11.55063937;0.0003736;51.9882;299.3683;30.6415;329.462;0.00078238;-3.8E-7;0;Globalstar
11.55063927;0.0003737;51.9882;299.154;30.8027;329.3008;0.00072738;-4.1E-7;0;Globalstar
11.55064;0.0003729;51.9882;297.8684;31.6573;328.4467;0.00084787;-3.5E-7;0;Globalstar
11.5506403;0.0003723;51.9882;296.7972;32.3896;327.7149;0.00082137;-3.6E-7;0;Globalstar
11.55064197;0.0003695;51.9882;294.4404;33.9803;326.125;0.0010155;-2.7E-7;0;Globalstar
11.55064203;0.0003695;51.9881;294.2261;34.1165;325.9889;0.0009858;-2.8E-7;0;Globalstar
11.55064266;0.000369;51.9882;291.8693;35.6922;324.4141;0.00093089;-3.1E-7;0;Globalstar
11.55064285;0.0003688;51.9882;291.6551;35.8211;324.2852;0.00093213;-3.1E-7;0;Globalstar
